[{"OBJECT_NAME":"TRANSPORTER-12 OBJECT AZ","OBJECT_ID":"2025-009AZ","EPOCH":"2026-03-09T17:02:46.667040","MEAN_MOTION":15.30349724,"ECCENTRICITY":9.87e-5,"INCLINATION":97.3981,"RA_OF_ASC_NODE":151.9913,"ARG_OF_PERICENTER":45.3581,"MEAN_ANOMALY":314.774,"EPHEMERIS_TYPE":0,"CLASSIFICATION_TYPE":"U","NORAD_CAT_ID":62656,"ELEMENT_SET_NO":999,"REV_AT_EPOCH":6379,"BSTAR":0.00054902545,"MEAN_MOTION_DOT":0.00016057,"MEAN_MOTION_DDOT":0},{"OBJECT_NAME":"STARLINK-35907","OBJECT_ID":"2025-263P","EPOCH":"2026-03-09T03:31:12.129024","MEAN_MOTION":15.27597703,"ECCENTRICITY":4.097e-5,"INCLINATION":42.9992,"RA_OF_ASC_NODE":353.9595,"ARG_OF_PERICENTER":309.0303,"MEAN_ANOMALY":51.0512,"EPHEMERIS_TYPE":0,"CLASSIFICATION_TYPE":"U","NORAD_CAT_ID":66498,"ELEMENT_SET_NO":999,"REV_AT_EPOCH":1881,"BSTAR":0.0014046499,"MEAN_MOTION_DOT":0.00038614,"MEAN_MOTION_DDOT":0}]
